SL-8 R/B                
1 15483U 85006B   26188.07330505  .00000126  00000+0  50449-4 0  9992
2 15483  74.0452  41.4689 0019239 285.6709 236.5957 14.37842293171186
SL-12 R/B(2)            
1 15772U 85042D   26188.44162718  .00000119  00000+0  74762-4 0  9999
2 15772  71.1060 194.7231 0037184 297.5899 227.1538 14.22009761131418
SL-14 R/B               
1 15945U 85069B   26188.16112728  .00000374  00000+0  39380-4 0  9995
2 15945  82.5269 272.5818 0019517 152.4603 207.7652 14.86531221190580
SL-16 R/B               
1 16182U 85097B   26188.10110491 -.00000259  00000+0 -10580-3 0  9993
2 16182  71.0020 249.1538 0005324  67.6367 310.3299 14.16613430104147
SL-14 R/B               
1 16496U 86006B   26188.30681258  .00000435  00000+0  43484-4 0  9992
2 16496  82.5276 147.1798 0074940 235.4072 124.0061 14.86964011166986
COSMOS 1743             
1 16719U 86034A   26188.31475003  .00042788  00000+0  37056-3 0  9995
2 16719  82.5273 307.3026 0004994 202.4084 157.6960 15.68954343198943
SL-14 R/B               
1 16792U 86046B   26188.35821219  .00000402  00000+0  43352-4 0  9991
2 16792  82.4832 327.1147 0022817 188.7723 171.3098 14.85686408144171
SL-14 R/B               
1 16882U 86055B   26188.03193703  .00000358  00000+0  38426-4 0  9992
2 16882  82.5197  14.4725 0017497 299.7077 222.5798 14.85736494137086
AJISAI (EGS)            
1 16908U 86061A   26188.60671485 -.00000100  00000+0 -17223-4 0  9998
2 16908  50.0097  84.6059 0011111 232.5276 165.5115 12.44516687482935
SL-14 R/B               
1 17567U 87024B   26188.41544133  .00000390  00000+0  41506-4 0  9998
2 17567  82.5291 340.2357 0017193 220.5940 139.3996 14.86227714105910
COSMOS 1833             
1 17589U 87027A   26188.14168147  .00000182  00000+0  12295-3 0  9993
2 17589  70.9211  74.9275 0023679  21.8605 338.3520 14.13063646 27192
SL-16 R/B               
1 17590U 87027B   26187.90908697 -.00000214  00000+0 -82117-4 0  9999
2 17590  71.0031  25.2686 0007104 290.7619  69.2743 14.17174521 32235
SL-14 R/B               
1 17912U 87038B   26188.40469468  .00000349  00000+0  37525-4 0  9993
2 17912  82.5005 184.0278 0020558 126.2292 234.0828 14.85457851 97007
COSMOS 1844             
1 17973U 87041A   26188.26055810  .00000349  00000+0  20582-3 0  9994
2 17973  70.8988 141.9654 0031818 206.4878 153.4619 14.14576284 20491
SL-14 R/B               
1 18153U 87055B   26188.09107745  .00000303  00000+0  32078-4 0  9990
2 18153  82.4977 236.4660 0020042 343.0325  17.0218 14.85723677 87668
COSMOS 1867             
1 18187U 87060A   26188.39288173 -.00000036  00000+0  24253-4 0  9991
2 18187  65.0119 331.4703 0016968 282.0835  77.8348 14.31517938 37074
SL-14 R/B               
1 18749U 88001B   26188.22921591  .00000320  00000+0  34085-4 0  9990
2 18749  82.5130  82.9186 0017431 198.3726 161.6863 14.85623320 59779
COSMOS 1933             
1 18958U 88020A   26188.39580414  .00003213  00000+0  15275-3 0  9999
2 18958  82.5133 132.4220 0005592 127.1577 233.0169 15.18853235 68391
SL-3 R/B                
1 19046U 88032B   26188.57288894  .00003113  00000+0  14246-3 0  9994
2 19046  97.5268 171.5955 0025748 171.5550 188.6124 15.20993403 70320
SL-16 R/B               
1 19120U 88039B   26187.99116877  .00000066  00000+0  53881-4 0  9993
2 19120  71.0130 176.2820 0021072 162.4747 197.7110 14.19632005975318
COSMOS 1953             
1 19210U 88050A   26187.63784476  .00005491  00000+0  18613-3 0  9993
2 19210  82.5065  38.4148 0012132  66.9975 293.2544 15.30255230 55960
SL-8 R/B                
1 19257U 88053B   26188.16088633  .00000154  00000+0  58385-4 0  9990
2 19257  74.0467 252.2397 0019465  40.3863 349.0507 14.38975547993780
COSMOS 1975             
1 19573U 88093A   26188.43605462  .00004599  00000+0  15884-3 0  9993
2 19573  82.5199 357.3283 0012572 106.5175 253.7447 15.29598976 37704
SL-14 R/B               
1 19574U 88093B   26188.26891464  .00000333  00000+0  35375-4 0  9994
2 19574  82.5319 289.7924 0020721   6.8592  21.7589 14.85756560 18771
SL-16 R/B               
1 19650U 88102B   26188.20665790 -.00000194  00000+0 -73960-4 0  9994
2 19650  70.9995 260.0163 0014728 197.7374 162.3237 14.16169142943814
INTERCOSMOS 24          
1 20261U 89080A   26188.50662568  .00000467  00000+0  13228-3 0  9994
2 20261  82.6047  26.4205 1187614  14.7893 348.4971 12.59688007681882
SL-14 R/B               
1 20262U 89080C   26188.16214753  .00000099  00000+0  29616-4 0  9996
2 20262  82.5942  96.4743 1228439 271.6759  74.4350 12.50577340675086
DELTA 1 R/B             
1 20323U 89089B   26188.01442361  .00000276  00000+0  76554-4 0  9995
2 20323  97.0634  16.3996 0070544 105.2394 255.6618 14.50744229913036
ARIANE 40 R/B           
1 20443U 90005H   26188.12675689  .00000202  00000+0  77609-4 0  9992
2 20443  98.2948 245.1219 0009709 198.2846 161.7995 14.39938063909992
DELTA 2 R/B(1)          
1 20453U 90008B   26188.15130585  .00086839  00000+0  55418-3 0  9993
2 20453  35.6000 101.7768 0062651 300.8841  58.5750 15.72328797944844
